{"type": "FeatureCollection", "features": [ {"type": "Feature", "properties": {"norad_id": 17070, "name": "POLAR BEAR", "group": "nnss", "lat": 11.092295233470894, "lon": -175.77372887887054, "alt_km": 1003.3135564136892, "timestamp": "2025-12-03T06:58:43.506100+00:00", "meta": {"OBJECT_NAME": "POLAR BEAR", "OBJECT_ID": "1986-088A", "EPOCH": "2025-12-02T20:30:03.281760", "MEAN_MOTION": 13.75247631, "ECCENTRICITY": 0.0040243, "INCLINATION": 89.6181, "RA_OF_ASC_NODE": 184.1689, "ARG_OF_PERICENTER": 148.0601, "MEAN_ANOMALY": 223.3417, "EPHEMERIS_TYPE": 0, "CLASSIFICATION_TYPE": "U", "NORAD_CAT_ID": 17070, "ELEMENT_SET_NO": 999, "REV_AT_EPOCH": 95843, "BSTAR": 0.00013875, "MEAN_MOTION_DOT": 1.45e-06, "MEAN_MOTION_DDOT": 0}, "tle": {"line1": "1 17070U 86088A   25336.85420465  .00000145  00000+0  13875-3 0  9994", "line2": "2 17070  89.6181 184.1689 0040243 148.0601 223.3417 13.75247631958430"}}, "geometry": {"type": "Point", "coordinates": [-175.77372887887054, 11.092295233470894]}}, {"type": "Feature", "properties": {"norad_id": 18361, "name": "OSCAR 27", "group": "nnss", "lat": -39.199804340275875, "lon": -101.38657587863699, "alt_km": 1032.6248336223962, "timestamp": "2025-12-03T06:58:43.506110+00:00", "meta": {"OBJECT_NAME": "OSCAR 27", "OBJECT_ID": "1987-080A", "EPOCH": "2025-12-02T19:10:13.828224", "MEAN_MOTION": 13.44903367, "ECCENTRICITY": 0.0102333, "INCLINATION": 90.3742, "RA_OF_ASC_NODE": 78.9004, "ARG_OF_PERICENTER": 252.6672, "MEAN_ANOMALY": 106.3262, "EPHEMERIS_TYPE": 0, "CLASSIFICATION_TYPE": "U", "NORAD_CAT_ID": 18361, "ELEMENT_SET_NO": 999, "REV_AT_EPOCH": 87423, "BSTAR": 0.0001967, "MEAN_MOTION_DOT": 1.26e-06, "MEAN_MOTION_DDOT": 0}, "tle": {"line1": "1 18361U 87080A   25336.79877116  .00000126  00000+0  19670-3 0  9991", "line2": "2 18361  90.3742  78.9004 0102333 252.6672 106.3262 13.44903367874230"}}, "geometry": {"type": "Point", "coordinates": [-101.38657587863699, -39.199804340275875]}}, {"type": "Feature", "properties": {"norad_id": 18362, "name": "OSCAR 29", "group": "nnss", "lat": -66.97954866164024, "lon": -101.50759452252507, "alt_km": 1031.3777507459035, "timestamp": "2025-12-03T06:58:43.506121+00:00", "meta": {"OBJECT_NAME": "OSCAR 29", "OBJECT_ID": "1987-080B", "EPOCH": "2025-12-02T19:36:55.628064", "MEAN_MOTION": 13.44445494, "ECCENTRICITY": 0.0103678, "INCLINATION": 90.3756, "RA_OF_ASC_NODE": 79.3592, "ARG_OF_PERICENTER": 276.0475, "MEAN_ANOMALY": 201.1902, "EPHEMERIS_TYPE": 0, "CLASSIFICATION_TYPE": "U", "NORAD_CAT_ID": 18362, "ELEMENT_SET_NO": 999, "REV_AT_EPOCH": 87376, "BSTAR": 0.00016466, "MEAN_MOTION_DOT": 1.06e-06, "MEAN_MOTION_DDOT": 0}, "tle": {"line1": "1 18362U 87080B   25336.81731051  .00000106  00000+0  16466-3 0  9990", "line2": "2 18362  90.3756  79.3592 0103678 276.0475 201.1902 13.44445494873761"}}, "geometry": {"type": "Point", "coordinates": [-101.50759452252507, -66.97954866164024]}}, {"type": "Feature", "properties": {"norad_id": 19070, "name": "OSCAR 23", "group": "nnss", "lat": -49.755917821954334, "lon": -164.28169733116945, "alt_km": 1031.1932912108969, "timestamp": "2025-12-03T06:58:43.506131+00:00", "meta": {"OBJECT_NAME": "OSCAR 23", "OBJECT_ID": "1988-033A", "EPOCH": "2025-12-02T15:58:32.916864", "MEAN_MOTION": 13.27784753, "ECCENTRICITY": 0.01887005, "INCLINATION": 90.3225, "RA_OF_ASC_NODE": 16.08, "ARG_OF_PERICENTER": 207.9828, "MEAN_ANOMALY": 274.4832, "EPHEMERIS_TYPE": 0, "CLASSIFICATION_TYPE": "U", "NORAD_CAT_ID": 19070, "ELEMENT_SET_NO": 999, "REV_AT_EPOCH": 82119, "BSTAR": 0.00022367884, "MEAN_MOTION_DOT": 1.19e-06, "MEAN_MOTION_DDOT": 0}, "tle": {"line1": "1 19070U 88033A   25336.66565876  .00000119  00000+0  22368-3 0  9991", "line2": "2 19070  90.3225  16.0800 0188700 207.9828 274.4832 13.27784753821193"}}, "geometry": {"type": "Point", "coordinates": [-164.28169733116945, -49.755917821954334]}}, {"type": "Feature", "properties": {"norad_id": 19071, "name": "OSCAR 32", "group": "nnss", "lat": -25.290232088541977, "lon": 16.383359707766036, "alt_km": 1269.9956371622839, "timestamp": "2025-12-03T06:58:43.506142+00:00", "meta": {"OBJECT_NAME": "OSCAR 32", "OBJECT_ID": "1988-033B", "EPOCH": "2025-12-02T17:15:59.737824", "MEAN_MOTION": 13.27951891, "ECCENTRICITY": 0.018752, "INCLINATION": 90.3227, "RA_OF_ASC_NODE": 16.2129, "ARG_OF_PERICENTER": 194.6594, "MEAN_ANOMALY": 289.0383, "EPHEMERIS_TYPE": 0, "CLASSIFICATION_TYPE": "U", "NORAD_CAT_ID": 19071, "ELEMENT_SET_NO": 999, "REV_AT_EPOCH": 82132, "BSTAR": 0.00016983, "MEAN_MOTION_DOT": 9.3e-07, "MEAN_MOTION_DDOT": 0}, "tle": {"line1": "1 19071U 88033B   25336.71944141  .00000093  00000+0  16983-3 0  9991", "line2": "2 19071  90.3227  16.2129 0187520 194.6594 289.0383 13.27951891821320"}}, "geometry": {"type": "Point", "coordinates": [16.383359707766036, -25.290232088541977]}}, {"type": "Feature", "properties": {"norad_id": 19223, "name": "NOVA 2", "group": "nnss", "lat": -19.278401577137544, "lon": 78.27959760955599, "alt_km": 1167.2329837657735, "timestamp": "2025-12-03T06:58:43.506152+00:00", "meta": {"OBJECT_NAME": "NOVA 2", "OBJECT_ID": "1988-052A", "EPOCH": "2025-12-02T20:47:07.749024", "MEAN_MOTION": 13.22933997, "ECCENTRICITY": 0.0031375, "INCLINATION": 89.9872, "RA_OF_ASC_NODE": 78.2846, "ARG_OF_PERICENTER": 43.4951, "MEAN_ANOMALY": 76.0711, "EPHEMERIS_TYPE": 0, "CLASSIFICATION_TYPE": "U", "NORAD_CAT_ID": 19223, "ELEMENT_SET_NO": 999, "REV_AT_EPOCH": 80817, "BSTAR": 0.00014136, "MEAN_MOTION_DOT": 6.8e-07, "MEAN_MOTION_DDOT": 0}, "tle": {"line1": "1 19223U 88052A   25336.86606191  .00000068  00000+0  14136-3 0  9997", "line2": "2 19223  89.9872  78.2846 0031375  43.4951  76.0711 13.22933997808176"}}, "geometry": {"type": "Point", "coordinates": [78.27959760955599, -19.278401577137544]}}, {"type": "Feature", "properties": {"norad_id": 19419, "name": "OSCAR 25", "group": "nnss", "lat": 71.66476941864303, "lon": -159.67939928706534, "alt_km": 1160.749973648154, "timestamp": "2025-12-03T06:58:43.506163+00:00", "meta": {"OBJECT_NAME": "OSCAR 25", "OBJECT_ID": "1988-074A", "EPOCH": "2025-12-02T16:42:42.390144", "MEAN_MOTION": 13.42620308, "ECCENTRICITY": 0.0094211, "INCLINATION": 90.0357, "RA_OF_ASC_NODE": 20.2107, "ARG_OF_PERICENTER": 275.0259, "MEAN_ANOMALY": 201.9843, "EPHEMERIS_TYPE": 0, "CLASSIFICATION_TYPE": "U", "NORAD_CAT_ID": 19419, "ELEMENT_SET_NO": 999, "REV_AT_EPOCH": 82505, "BSTAR": 0.00023232, "MEAN_MOTION_DOT": 1.43e-06, "MEAN_MOTION_DDOT": 0}, "tle": {"line1": "1 19419U 88074A   25336.69632396  .00000143  00000+0  23232-3 0  9996", "line2": "2 19419  90.0357  20.2107 0094211 275.0259 201.9843 13.42620308825055"}}, "geometry": {"type": "Point", "coordinates": [-159.67939928706534, 71.66476941864303]}}, {"type": "Feature", "properties": {"norad_id": 19420, "name": "OSCAR 31", "group": "nnss", "lat": -5.394386990150914, "lon": 20.56473720658774, "alt_km": 1099.3795682430164, "timestamp": "2025-12-03T06:58:43.506176+00:00", "meta": {"OBJECT_NAME": "OSCAR 31", "OBJECT_ID": "1988-074B", "EPOCH": "2025-12-02T17:19:08.705856", "MEAN_MOTION": 13.42582051, "ECCENTRICITY": 0.009244, "INCLINATION": 90.0373, "RA_OF_ASC_NODE": 20.5591, "ARG_OF_PERICENTER": 269.0629, "MEAN_ANOMALY": 215.341, "EPHEMERIS_TYPE": 0, "CLASSIFICATION_TYPE": "U", "NORAD_CAT_ID": 19420, "ELEMENT_SET_NO": 999, "REV_AT_EPOCH": 82516, "BSTAR": 0.00018827, "MEAN_MOTION_DOT": 1.17e-06, "MEAN_MOTION_DDOT": 0}, "tle": {"line1": "1 19420U 88074B   25336.72162854  .00000117  00000+0  18827-3 0  9994", "line2": "2 19420  90.0373  20.5591 0092440 269.0629 215.3410 13.42582051825164"}}, "geometry": {"type": "Point", "coordinates": [20.56473720658774, -5.394386990150914]}}]}